OBJECT_NAME,OBJECT_ID,EPOCH,MEAN_MOTION,ECCENTRICITY,INCLINATION,RA_OF_ASC_NODE,ARG_OF_PERICENTER,MEAN_ANOMALY,EPHEMERIS_TYPE,CLASSIFICATION_TYPE,NORAD_CAT_ID,ELEMENT_SET_NO,REV_AT_EPOCH,BSTAR,MEAN_MOTION_DOT,MEAN_MOTION_DDOT
ONEWEB-0198,2021-031G,2026-07-14T16:55:31.840896,13.14502293,.000248,87.8962,284.2266,101.0538,259.0870,0,U,48216,999,25210,.52741E-3,.208E-5,0
ONEWEB-0189,2021-031H,2026-07-14T19:03:12.350016,13.14502186,.0002355,87.8971,284.1983,100.4623,259.6772,0,U,48217,999,25185,.55454E-4,.33E-6,0
ONEWEB-0196,2021-031J,2026-07-14T18:31:14.319264,13.14502296,.0002187,87.8968,284.2113,99.6735,260.4641,0,U,48218,999,25185,.52323E-3,.207E-5,0
ONEWEB-0183,2021-031K,2026-07-14T17:54:41.605632,13.14502398,.0001972,87.8966,284.2138,94.5793,265.5561,0,U,48219,999,25194,-.36128E-3,-.121E-5,0
ONEWEB-0185,2021-031L,2026-07-14T18:32:21.300000,13.14503677,.0002209,87.8975,284.2043,90.2050,269.9333,0,U,48220,999,25187,.67453E-3,.263E-5,0
ONEWEB-0187,2021-031M,2026-07-14T18:03:37.492128,13.14502776,.000219,87.8967,284.2219,97.2176,262.9202,0,U,48221,999,25188,-.14896E-3,-.42E-6,0
ONEWEB-0192,2021-031N,2026-07-14T19:10:03.251136,13.14502757,.0002116,87.8969,284.2027,100.9101,259.2267,0,U,48222,999,25180,-.27987E-3,-.91E-6,0
ONEWEB-0219,2021-031P,2026-07-14T18:40:21.069696,13.14503432,.0002202,87.8976,284.2002,94.5179,265.6202,0,U,48223,999,25200,.68184E-3,.266E-5,0
ONEWEB-0202,2021-031Q,2026-07-14T18:12:58.451040,13.14502758,.0002645,87.8970,284.2161,107.8763,252.2655,0,U,48224,999,25198,.29891E-3,.124E-5,0
ONEWEB-0204,2021-031R,2026-07-14T19:02:03.179904,13.14500599,.0001814,87.8972,284.2038,88.0006,272.1331,0,U,48225,999,25188,.51053E-3,.202E-5,0
ONEWEB-0205,2021-031S,2026-07-14T18:26:39.957792,13.14502584,.0002301,87.8976,284.2038,96.0739,264.0653,0,U,48226,999,25189,.52422E-3,.207E-5,0
ONEWEB-0206,2021-031T,2026-07-14T17:47:50.187840,13.14501766,.0001894,87.8971,284.2092,102.1889,257.9453,0,U,48227,999,25184,-.61109E-3,-.214E-5,0
ONEWEB-0182,2021-031U,2026-07-14T17:40:58.465056,13.14504131,.0001905,87.8968,284.2166,94.3303,265.8044,0,U,48228,999,25205,-.49169E-3,-.169E-5,0
ONEWEB-0186,2021-031V,2026-07-14T17:56:58.451136,13.14502989,.0002129,87.8976,284.2079,98.0720,262.0651,0,U,48229,999,25200,-.36804E-3,-.124E-5,0
ONEWEB-0181,2021-031W,2026-07-14T19:14:35.766240,13.14501027,.0002226,87.8964,284.2214,99.1564,260.9817,0,U,48230,999,25186,-.49362E-3,-.17E-5,0
ONEWEB-0188,2021-031X,2026-07-14T18:19:48.616032,13.14502205,.0002072,87.8961,284.2287,98.1263,262.0102,0,U,48231,999,25176,.35725E-3,.145E-5,0
ONEWEB-0220,2021-031Y,2026-07-14T19:16:54.297408,13.14493723,.0002215,87.8978,284.1978,92.9430,267.1953,0,U,48232,999,25203,-.45073E-3,-.154E-5,0
ONEWEB-0165,2021-031Z,2026-07-14T18:08:23.882208,13.14503733,.0002432,87.8967,284.2185,102.4809,257.6593,0,U,48233,999,25198,.16669E-3,.75E-6,0
ONEWEB-0199,2021-031AA,2026-07-14T17:45:33.591168,13.14502320,.0001875,87.8976,284.2088,101.1554,258.9786,0,U,48234,999,25188,-.46118E-3,-.158E-5,0
ONEWEB-0203,2021-031AB,2026-07-14T19:21:27.842400,13.14501321,.0002084,87.8975,284.1987,105.2924,254.8436,0,U,48235,999,25190,-.60533E-3,-.212E-5,0
ONEWEB-0197,2021-031AC,2026-07-14T18:44:43.607328,13.14502509,.0001967,87.8965,284.1875,92.4129,267.7226,0,U,48236,999,25181,.45388E-3,.181E-5,0
ONEWEB-0194,2021-031AD,2026-07-14T18:15:14.214816,13.14504197,.0001929,87.8967,284.2150,105.9642,254.1700,0,U,48237,999,25198,.31212E-3,.129E-5,0
ONEWEB-0193,2021-031AE,2026-07-14T18:38:05.210016,13.14502204,.0001806,87.8968,284.2022,110.6589,249.4735,0,U,48238,999,25193,.41252E-3,.166E-5,0
ONEWEB-0191,2021-031AF,2026-07-14T18:54:03.006720,13.14506466,.0001904,87.8977,284.2005,95.3103,264.8244,0,U,48239,999,25179,.50311E-3,.199E-5,0
ONEWEB-0195,2021-031AG,2026-07-14T18:20:57.165792,13.14503474,.0002443,87.8977,284.2050,98.7099,261.4308,0,U,48240,999,25177,.36655E-3,.149E-5,0
ONEWEB-0201,2021-031AH,2026-07-14T18:04:01.068096,13.14502391,.0002028,87.8966,284.2221,91.8750,268.2612,0,U,48241,999,25200,-.88799E-4,-.2E-6,0
ONEWEB-0207,2021-031AJ,2026-07-14T19:24:52.079040,13.14501652,.0002036,87.8974,284.1968,92.2125,267.9238,0,U,48242,999,25192,-.43562E-3,-.149E-5,0
ONEWEB-0208,2021-031AK,2026-07-14T18:58:37.807968,13.14502063,.0002369,87.8972,284.2062,102.7594,257.3801,0,U,48243,999,25193,.99847E-4,.5E-6,0
ONEWEB-0200,2021-031AL,2026-07-14T18:06:07.041024,13.14502365,.0002121,87.8980,284.2026,98.6608,261.4762,0,U,48244,999,25185,-.13434E-3,-.37E-6,0
ONEWEB-0217,2021-031AM,2026-07-14T18:28:56.914752,13.14502504,.0002399,87.8977,284.2035,103.0708,257.0689,0,U,48245,999,25180,.59146E-3,.232E-5,0
