[
  {
    "name": "ONEWEB-0198",
    "noradId": "48216",
    "line1": "1 48216U 21031G   26195.70522964  .00000208  00000+0  52741-3 0  9997",
    "line2": "2 48216  87.8962 284.2266 0002480 101.0538 259.0870 13.14502293252106"
  },
  {
    "name": "ONEWEB-0189",
    "noradId": "48217",
    "line1": "1 48217U 21031H   26195.79389294  .00000033  00000+0  55454-4 0  9995",
    "line2": "2 48217  87.8971 284.1983 0002355 100.4623 259.6772 13.14502186251850"
  },
  {
    "name": "ONEWEB-0196",
    "noradId": "48218",
    "line1": "1 48218U 21031J   26195.77169351  .00000207  00000+0  52323-3 0  9998",
    "line2": "2 48218  87.8968 284.2113 0002187  99.6735 260.4641 13.14502296251856"
  },
  {
    "name": "ONEWEB-0183",
    "noradId": "48219",
    "line1": "1 48219U 21031K   26195.74631488 -.00000121  00000+0 -36128-3 0  9993",
    "line2": "2 48219  87.8966 284.2138 0001972  94.5793 265.5561 13.14502398251941"
  },
  {
    "name": "ONEWEB-0185",
    "noradId": "48220",
    "line1": "1 48220U 21031L   26195.77246875  .00000263  00000+0  67453-3 0  9990",
    "line2": "2 48220  87.8975 284.2043 0002209  90.2050 269.9333 13.14503677251879"
  },
  {
    "name": "ONEWEB-0187",
    "noradId": "48221",
    "line1": "1 48221U 21031M   26195.75251727 -.00000042  00000+0 -14896-3 0  9991",
    "line2": "2 48221  87.8967 284.2219 0002190  97.2176 262.9202 13.14502776251889"
  },
  {
    "name": "ONEWEB-0192",
    "noradId": "48222",
    "line1": "1 48222U 21031N   26195.79864874 -.00000091  00000+0 -27987-3 0  9998",
    "line2": "2 48222  87.8969 284.2027 0002116 100.9101 259.2267 13.14502757251808"
  },
  {
    "name": "ONEWEB-0219",
    "noradId": "48223",
    "line1": "1 48223U 21031P   26195.77802164  .00000266  00000+0  68184-3 0  9997",
    "line2": "2 48223  87.8976 284.2002 0002202  94.5179 265.6202 13.14503432252003"
  },
  {
    "name": "ONEWEB-0202",
    "noradId": "48224",
    "line1": "1 48224U 21031Q   26195.75900985  .00000124  00000+0  29891-3 0  9991",
    "line2": "2 48224  87.8970 284.2161 0002645 107.8763 252.2655 13.14502758251982"
  },
  {
    "name": "ONEWEB-0204",
    "noradId": "48225",
    "line1": "1 48225U 21031R   26195.79309236  .00000202  00000+0  51053-3 0  9990",
    "line2": "2 48225  87.8972 284.2038 0001814  88.0006 272.1331 13.14500599251887"
  },
  {
    "name": "ONEWEB-0205",
    "noradId": "48226",
    "line1": "1 48226U 21031S   26195.76851803  .00000207  00000+0  52422-3 0  9996",
    "line2": "2 48226  87.8976 284.2038 0002301  96.0739 264.0653 13.14502584251890"
  },
  {
    "name": "ONEWEB-0206",
    "noradId": "48227",
    "line1": "1 48227U 21031T   26195.74155310 -.00000214  00000+0 -61109-3 0  9997",
    "line2": "2 48227  87.8971 284.2092 0001894 102.1889 257.9453 13.14501766251842"
  },
  {
    "name": "ONEWEB-0182",
    "noradId": "48228",
    "line1": "1 48228U 21031U   26195.73678779 -.00000169  00000+0 -49169-3 0  9997",
    "line2": "2 48228  87.8968 284.2166 0001905  94.3303 265.8044 13.14504131252054"
  },
  {
    "name": "ONEWEB-0186",
    "noradId": "48229",
    "line1": "1 48229U 21031V   26195.74789874 -.00000124  00000+0 -36804-3 0  9991",
    "line2": "2 48229  87.8976 284.2079 0002129  98.0720 262.0651 13.14502989252007"
  },
  {
    "name": "ONEWEB-0181",
    "noradId": "48230",
    "line1": "1 48230U 21031W   26195.80180285 -.00000170  00000+0 -49362-3 0  9995",
    "line2": "2 48230  87.8964 284.2214 0002226  99.1564 260.9817 13.14501027251869"
  },
  {
    "name": "ONEWEB-0188",
    "noradId": "48231",
    "line1": "1 48231U 21031X   26195.76375713  .00000145  00000+0  35725-3 0  9991",
    "line2": "2 48231  87.8961 284.2287 0002072  98.1263 262.0102 13.14502205251769"
  },
  {
    "name": "ONEWEB-0220",
    "noradId": "48232",
    "line1": "1 48232U 21031Y   26195.80340622 -.00000154  00000+0 -45073-3 0  9997",
    "line2": "2 48232  87.8978 284.1978 0002215  92.9430 267.1953 13.14493723252036"
  },
  {
    "name": "ONEWEB-0165",
    "noradId": "48233",
    "line1": "1 48233U 21031Z   26195.75583197  .00000075  00000+0  16669-3 0  9997",
    "line2": "2 48233  87.8967 284.2185 0002432 102.4809 257.6593 13.14503733251984"
  },
  {
    "name": "ONEWEB-0199",
    "noradId": "48234",
    "line1": "1 48234U 21031AA  26195.73997212 -.00000158  00000+0 -46118-3 0  9999",
    "line2": "2 48234  87.8976 284.2088 0001875 101.1554 258.9786 13.14502320251888"
  },
  {
    "name": "ONEWEB-0203",
    "noradId": "48235",
    "line1": "1 48235U 21031AB  26195.80657225 -.00000212  00000+0 -60533-3 0  9993",
    "line2": "2 48235  87.8975 284.1987 0002084 105.2924 254.8436 13.14501321251904"
  },
  {
    "name": "ONEWEB-0197",
    "noradId": "48236",
    "line1": "1 48236U 21031AC  26195.78106027  .00000181  00000+0  45388-3 0  9994",
    "line2": "2 48236  87.8965 284.1875 0001967  92.4129 267.7226 13.14502509251812"
  },
  {
    "name": "ONEWEB-0194",
    "noradId": "48237",
    "line1": "1 48237U 21031AD  26195.76058119  .00000129  00000+0  31212-3 0  9994",
    "line2": "2 48237  87.8967 284.2150 0001929 105.9642 254.1700 13.14504197251980"
  },
  {
    "name": "ONEWEB-0193",
    "noradId": "48238",
    "line1": "1 48238U 21031AE  26195.77644919  .00000166  00000+0  41252-3 0  9991",
    "line2": "2 48238  87.8968 284.2022 0001806 110.6589 249.4735 13.14502204251934"
  },
  {
    "name": "ONEWEB-0191",
    "noradId": "48239",
    "line1": "1 48239U 21031AF  26195.78753480  .00000199  00000+0  50311-3 0  9999",
    "line2": "2 48239  87.8977 284.2005 0001904  95.3103 264.8244 13.14506466251790"
  },
  {
    "name": "ONEWEB-0195",
    "noradId": "48240",
    "line1": "1 48240U 21031AG  26195.76455053  .00000149  00000+0  36655-3 0  9994",
    "line2": "2 48240  87.8977 284.2050 0002443  98.7099 261.4308 13.14503474251770"
  },
  {
    "name": "ONEWEB-0201",
    "noradId": "48241",
    "line1": "1 48241U 21031AH  26195.75279014 -.00000020  00000+0 -88799-4 0  9992",
    "line2": "2 48241  87.8966 284.2221 0002028  91.8750 268.2612 13.14502391252003"
  },
  {
    "name": "ONEWEB-0207",
    "noradId": "48242",
    "line1": "1 48242U 21031AJ  26195.80893610 -.00000149  00000+0 -43562-3 0  9993",
    "line2": "2 48242  87.8974 284.1968 0002036  92.2125 267.9238 13.14501652251929"
  },
  {
    "name": "ONEWEB-0208",
    "noradId": "48243",
    "line1": "1 48243U 21031AK  26195.79071537  .00000050  00000+0  99847-4 0  9995",
    "line2": "2 48243  87.8972 284.2062 0002369 102.7594 257.3801 13.14502063251937"
  },
  {
    "name": "ONEWEB-0200",
    "noradId": "48244",
    "line1": "1 48244U 21031AL  26195.75424816 -.00000037  00000+0 -13434-3 0  9998",
    "line2": "2 48244  87.8980 284.2026 0002121  98.6608 261.4762 13.14502365251850"
  },
  {
    "name": "ONEWEB-0217",
    "noradId": "48245",
    "line1": "1 48245U 21031AM  26195.77010318  .00000232  00000+0  59146-3 0  9994",
    "line2": "2 48245  87.8977 284.2035 0002399 103.0708 257.0689 13.14502504251805"
  }
]